FIRST NAME,LAST NAME,CONTACT TYPE,STREET 1,STREET 2,CITY,STATE/PROVINCE,POSTAL CODE,COUNTRY,EMAIL ADDRESS 1,PHONE NUMBER 1
Mxxxxxx,Bxxxxxxx,,99 Xxxxxxx Xxxxxx,,Xxxx Xxxxs,NSW,9999,AU,xxx@xxx.xxx,+61 123 456 789
Mxxxxxx,Bxxxxxxx,Shipping,Xxxx Xxxx,,Xxxx Xxxxs,NSW,9999,AU,,
Mxxxxxx,Bxxxxxxx,Ordered By,Xxxx Xxxx,,Xxxx Xxxx,NSW,9999,AU,,
Mxxxxxx,Bxxxxxxx,Invoice To,Xxxx Xxxx,,Xxxx Xxxx,NSW,9999,AU,,
Mxxxxxx,Bxxxxxxx,Order,Xxxx Xxxx,,Xxxx Xxxx,NSW,9999,AU,,
Mxxxxxx,Bxxxxxxx,Delivery,Xxxx Xxxx,,Xxxx Xxxx,NSW,9999,AU,,
Mxxxxxx,Bxxxxxxx,Shipping,Xxxx Xxxx,,Xxxx Xxxx,NSW,9999,AU,,
Mxxxxxx,Bxxxxxxx,Billing,Xxxx Xxxx,,Xxxx Xxxx,NSW,9999,AU,,
Mxxxxxx,Bxxxxxxx,Payer: Subscriptions,99 Xxxxxxx Xxxxxx,,Xxxx Xxxx,NSW,9999,AU,,
Mxxxxxx,Bxxxxxxx,Payer: Upgrades,99 Xxxxxxx Xxxxxx,,Xxxx Xxxx,NSW,9999,AU,,
Mxxxxxx,Bxxxxxxx,Ordered By,99 Xxxxxxx Xxxxxx,,Xxxx Xxxx,NSW,9999,AU,,
Mxxxxxx,Bxxxxxxx,Owner Reg,99 Xxxxxxx Xxxxxx,,Xxxx Xxxx,NSW,9999,AU,,
Mxxxxxx,Bxxxxxxx,Invoice To,99 Xxxxxxx Xxxxxx,,Xxxx Xxxx,NSW,9999,AU,,
Mxxxxxx,Bxxxxxxx,Owner Reg,Xxxx Xxxx,,Xxxx Xxxxs,NSW,9999,AU,,
Mxxxxxx,Bxxxxxxx,Order,99 Xxxxxxx Xxxxxx,,Xxxx Xxxx,NSW,9999,AU,,
Mxxxxxx,Bxxxxxxx,Deliver To,99 Xxxxxxx Xxxxxx,,Xxxx Xxxx,NSW,9999,AU,,
Mxxxxxx,Bxxxxxxx,Billing,99 Xxxxxxx Xxxxxx,,Xxxx Xxxx,NSW,9999,AU,,
Mxxxxxx,Bxxxxxxx,Billing Address Pc,99 Xxxxxxx Xxxxxx,,Xxxx Xxxx,NSW,9999,AU,,
Mxxxxxx,Bxxxxxxx,Billing Address Ota,99 Xxxxxxx Xxxxxx,,Xxxx Xxxx,NSW,9999,AU,,
Mxxxxxx,Bxxxxxxx ,,99 Xxxxxxx Xxxxxx,,Xxxx Xxxx,,9999,AU,xxx@xxx.xxx,+61 123 456 789
Mxxxxxx,Bxxxxxxx,,99 Xxxxxxx Xxxxxx,,Xxxx Xxxx,NSW,9999,AU,xxx@xxx.xxx,+61 123 456 789
Mxxxxxx,Bxxxxxxx,,Xxxx Xxxx,,Xxxx Xxxx,NSW,9999,AU,xxx@xxx.xxx,+61 123 456 789
Mxxxxxx,Bxxxxxxx,,99 Xxxxxxx Xxxxxx,,Xxxx Xxxx,NSW,9999,AU,xxx@xxx.xxx,+61 123 456 789
Mxxxxxx,Bxxxxxxx,,,,,,,,xxx@xxx.xxx,+61 123 456 789
Mxxxxxx,Bxxxxxxx,Delivery,99 Xxxxxxx Xxxxxx,,Xxxx Xxxx,NSW,9999,AU,,
Mxxxxxx,Bxxxxxxx,Delivery,Xxxx Xxxx,,Xxxx Xxxxs,NSW,9999,AU,,
